{
  "type": "FeatureCollection",
  "features": [
    {
      "type": "Feature",
      "properties": {
        "norad_id": 36385,
        "name": "COSMOS 2251 DEB",
        "group": "cosmos-2251-debris",
        "lat": 26.89807551017163,
        "lon": -55.29219824189194,
        "alt_km": 739.4926924885904,
        "timestamp": "2025-12-23T16:57:12.752062+00:00",
        "meta_object_name": "COSMOS 2251 DEB",
        "meta_object_id": "1993-036AZN",
        "meta_epoch": "2025-12-20T19:47:03.334560",
        "meta_mean_motion": 14.72696016,
        "meta_eccentricity": 0.01415357,
        "meta_inclination": 73.9698,
        "meta_ra_of_asc_node": 138.7285,
        "meta_arg_of_pericenter": 311.3318,
        "meta_mean_anomaly": 47.5743,
        "meta_ephemeris_type": 0,
        "meta_classification_type": "U",
        "meta_norad_cat_id": 36385,
        "meta_element_set_no": 999,
        "meta_rev_at_epoch": 85221,
        "meta_bstar": 0.0008039038,
        "meta_mean_motion_dot": 5.978e-05,
        "meta_mean_motion_ddot": 0,
        "tle_line1": "1 36385U 93036AZN 25354.82434415  .00005978  00000+0  80390-3 0  9997",
        "tle_line2": "2 36385  73.9698 138.7285 0141535 311.3318  47.5743 14.72696016852212"
      },
      "geometry": {
        "type": "Point",
        "coordinates": [
          -55.29219824189194,
          26.89807551017163
        ]
      }
    },
    {
      "type": "Feature",
      "properties": {
        "norad_id": 36420,
        "name": "COSMOS 2251 DEB",
        "group": "cosmos-2251-debris",
        "lat": 64.16645447124758,
        "lon": 39.08057786888708,
        "alt_km": 770.5489332764128,
        "timestamp": "2025-12-23T16:57:12.752072+00:00",
        "meta_object_name": "COSMOS 2251 DEB",
        "meta_object_id": "1993-036AZT",
        "meta_epoch": "2025-12-21T02:55:38.256384",
        "meta_mean_motion": 14.36907864,
        "meta_eccentricity": 0.00184562,
        "meta_inclination": 74.0376,
        "meta_ra_of_asc_node": 260.0713,
        "meta_arg_of_pericenter": 346.0954,
        "meta_mean_anomaly": 80.7548,
        "meta_ephemeris_type": 0,
        "meta_classification_type": "U",
        "meta_norad_cat_id": 36420,
        "meta_element_set_no": 999,
        "meta_rev_at_epoch": 85157,
        "meta_bstar": 0.00010545411,
        "meta_mean_motion_dot": 2.86e-06,
        "meta_mean_motion_ddot": 0,
        "tle_line1": "1 36420U 93036AZT 25355.12197056  .00000286  00000+0  10545-3 0  9990",
        "tle_line2": "2 36420  74.0376 260.0713 0018456 346.0954  80.7548 14.36907864851574"
      },
      "geometry": {
        "type": "Point",
        "coordinates": [
          39.08057786888708,
          64.16645447124758
        ]
      }
    },
    {
      "type": "Feature",
      "properties": {
        "norad_id": 36430,
        "name": "COSMOS 2251 DEB",
        "group": "cosmos-2251-debris",
        "lat": 46.36389403346374,
        "lon": -108.88540421515249,
        "alt_km": 812.7930812969871,
        "timestamp": "2025-12-23T16:57:12.752084+00:00",
        "meta_object_name": "COSMOS 2251 DEB",
        "meta_object_id": "1993-036BAD",
        "meta_epoch": "2025-12-22T23:31:00.132096",
        "meta_mean_motion": 14.27817368,
        "meta_eccentricity": 0.00978453,
        "meta_inclination": 74.0045,
        "meta_ra_of_asc_node": 89.9408,
        "meta_arg_of_pericenter": 238.1166,
        "meta_mean_anomaly": 121.0434,
        "meta_ephemeris_type": 0,
        "meta_classification_type": "U",
        "meta_norad_cat_id": 36430,
        "meta_element_set_no": 999,
        "meta_rev_at_epoch": 64703,
        "meta_bstar": 0.00047484504,
        "meta_mean_motion_dot": 1.209e-05,
        "meta_mean_motion_ddot": 0,
        "tle_line1": "1 36430U 93036BAD 25356.97986264  .00001209  00000+0  47485-3 0  9991",
        "tle_line2": "2 36430  74.0045  89.9408 0097845 238.1166 121.0434 14.27817368647038"
      },
      "geometry": {
        "type": "Point",
        "coordinates": [
          -108.88540421515249,
          46.36389403346374
        ]
      }
    },
    {
      "type": "Feature",
      "properties": {
        "norad_id": 36437,
        "name": "COSMOS 2251 DEB",
        "group": "cosmos-2251-debris",
        "lat": 31.38154856444621,
        "lon": 22.708204955825142,
        "alt_km": 670.3701351822137,
        "timestamp": "2025-12-23T16:57:12.752094+00:00",
        "meta_object_name": "COSMOS 2251 DEB",
        "meta_object_id": "1993-036BAL",
        "meta_epoch": "2025-12-20T18:36:38.364192",
        "meta_mean_motion": 14.70810572,
        "meta_eccentricity": 0.00231641,
        "meta_inclination": 73.942,
        "meta_ra_of_asc_node": 18.3096,
        "meta_arg_of_pericenter": 249.5495,
        "meta_mean_anomaly": 110.3188,
        "meta_ephemeris_type": 0,
        "meta_classification_type": "U",
        "meta_norad_cat_id": 36437,
        "meta_element_set_no": 999,
        "meta_rev_at_epoch": 66169,
        "meta_bstar": 0.00075908188,
        "meta_mean_motion_dot": 4.626e-05,
        "meta_mean_motion_ddot": 0,
        "tle_line1": "1 36437U 93036BAL 25354.77544403  .00004626  00000+0  75908-3 0  9996",
        "tle_line2": "2 36437  73.9420  18.3096 0023164 249.5495 110.3188 14.70810572661696"
      },
      "geometry": {
        "type": "Point",
        "coordinates": [
          22.708204955825142,
          31.38154856444621
        ]
      }
    },
    {
      "type": "Feature",
      "properties": {
        "norad_id": 36439,
        "name": "COSMOS 2251 DEB",
        "group": "cosmos-2251-debris",
        "lat": 26.999233989453003,
        "lon": -169.20514603048184,
        "alt_km": 1382.552153380454,
        "timestamp": "2025-12-23T16:57:12.752104+00:00",
        "meta_object_name": "COSMOS 2251 DEB",
        "meta_object_id": "1993-036BAN",
        "meta_epoch": "2025-12-16T11:25:24.463776",
        "meta_mean_motion": 13.47804354,
        "meta_eccentricity": 0.04280619,
        "meta_inclination": 73.9685,
        "meta_ra_of_asc_node": 30.7531,
        "meta_arg_of_pericenter": 1.8523,
        "meta_mean_anomaly": 358.4044,
        "meta_ephemeris_type": 0,
        "meta_classification_type": "U",
        "meta_norad_cat_id": 36439,
        "meta_element_set_no": 999,
        "meta_rev_at_epoch": 58663,
        "meta_bstar": 0.0011092098,
        "meta_mean_motion_dot": 1.175e-05,
        "meta_mean_motion_ddot": 0,
        "tle_line1": "1 36439U 93036BAN 25350.47597759  .00001175  00000+0  11092-2 0  9992",
        "tle_line2": "2 36439  73.9685  30.7531 0428061   1.8523 358.4044 13.47804354586639"
      },
      "geometry": {
        "type": "Point",
        "coordinates": [
          -169.20514603048184,
          26.999233989453003
        ]
      }
    },
    {
      "type": "Feature",
      "properties": {
        "norad_id": 36441,
        "name": "COSMOS 2251 DEB",
        "group": "cosmos-2251-debris",
        "lat": 59.052276632803434,
        "lon": 118.020407370113,
        "alt_km": 494.1048687646444,
        "timestamp": "2025-12-23T16:57:12.752114+00:00",
        "meta_object_name": "COSMOS 2251 DEB",
        "meta_object_id": "1993-036BAQ",
        "meta_epoch": "2025-12-18T05:47:29.908032",
        "meta_mean_motion": 15.06846048,
        "meta_eccentricity": 0.01082047,
        "meta_inclination": 73.8354,
        "meta_ra_of_asc_node": 338.3111,
        "meta_arg_of_pericenter": 76.0854,
        "meta_mean_anomaly": 285.2342,
        "meta_ephemeris_type": 0,
        "meta_classification_type": "U",
        "meta_norad_cat_id": 36441,
        "meta_element_set_no": 999,
        "meta_rev_at_epoch": 87048,
        "meta_bstar": 0.0004365334,
        "meta_mean_motion_dot": 7.404e-05,
        "meta_mean_motion_ddot": 0,
        "tle_line1": "1 36441U 93036BAQ 25352.24131838  .00007404  00000+0  43653-3 0  9994",
        "tle_line2": "2 36441  73.8354 338.3111 0108204  76.0854 285.2342 15.06846048870480"
      },
      "geometry": {
        "type": "Point",
        "coordinates": [
          118.020407370113,
          59.052276632803434
        ]
      }
    },
    {
      "type": "Feature",
      "properties": {
        "norad_id": 36442,
        "name": "COSMOS 2251 DEB",
        "group": "cosmos-2251-debris",
        "lat": 25.339106673151473,
        "lon": -172.0979075966039,
        "alt_km": 470.58641394139704,
        "timestamp": "2025-12-23T16:57:12.752124+00:00",
        "meta_object_name": "COSMOS 2251 DEB",
        "meta_object_id": "1993-036BAR",
        "meta_epoch": "2025-12-21T18:51:31.867200",
        "meta_mean_motion": 15.32486394,
        "meta_eccentricity": 0.00080169,
        "meta_inclination": 73.9482,
        "meta_ra_of_asc_node": 19.8637,
        "meta_arg_of_pericenter": 316.0651,
        "meta_mean_anomaly": 43.9914,
        "meta_ephemeris_type": 0,
        "meta_classification_type": "U",
        "meta_norad_cat_id": 36442,
        "meta_element_set_no": 999,
        "meta_rev_at_epoch": 86054,
        "meta_bstar": 0.0050536247,
        "meta_mean_motion_dot": 0.00162161,
        "meta_mean_motion_ddot": 0,
        "tle_line1": "1 36442U 93036BAR 25355.78578550  .00162161  00000+0  50536-2 0  9992",
        "tle_line2": "2 36442  73.9482  19.8637 0008016 316.0651  43.9914 15.32486394860543"
      },
      "geometry": {
        "type": "Point",
        "coordinates": [
          -172.0979075966039,
          25.339106673151473
        ]
      }
    }
  ]
}